ZHUHAI-1 01 (CAS-4A)    
1 42761U 17034D   23168.53413495  .00008145  00000+0  41043-3 0  9991
2 42761  43.0145 112.2881 0010114 108.0669 252.1281 15.17437953331686
MAX VALIER SAT          
1 42778U 17036P   23168.36170266  .00022067  00000+0  57398-3 0  9997
2 42778  97.1543 203.2008 0010446 103.1027 257.1386 15.38872044332757
RADFXSAT (FOX-1B)       
1 43017U 17073E   23168.38855587  .00008112  00000+0  56243-3 0  9996
2 43017  97.6317  52.7182 0234980  68.8000 293.8145 14.86100328301215
FOX-1D (AO-92)          
1 43137U 18004AC  23168.45779663  .00036218  00000+0  73922-3 0  9993
2 43137  97.3290 247.6513 0006829 136.2241 223.9551 15.46082143302356
DIWATA-2B               
1 43678U 18084H   23168.52374455  .00001307  00000+0  13002-3 0  9993
2 43678  98.0229 312.4994 0010131 153.6472 206.5264 14.93429332252314
ES'HAIL 2               
1 43700U 18090A   23168.30257675  .00000149  00000+0  00000+0 0  9999
2 43700   0.0082 325.8409 0001402 158.8921 275.2887  1.00270232 16685
FOX-1CLIFF (AO-95)      
1 43770U 18099N   23168.42562807  .00005081  00000+0  41418-3 0  9996
2 43770  97.5701 229.9573 0013316 136.0187 224.2098 14.99837732247642
ITASAT 1                
1 43786U 18099AE  23168.42785045  .00004284  00000+0  35293-3 0  9992
2 43786  97.5743 230.9926 0013837 123.9610 236.2931 14.99513017247683
JY1SAT (JO-97)          
1 43803U 18099AX  23168.44877266  .00006417  00000+0  50791-3 0  9991
2 43803  97.5707 231.0082 0015208  92.0230 268.2736 15.00852634247734
UWE-4                   
1 43880U 18111E   23168.22376519  .00006964  00000+0  53125-3 0  9993
2 43880  97.6338  73.4004 0018375 170.6365 189.5206 15.02190714244372
NEXUS (FO-99)           
1 43937U 19003F   23168.55160683  .00053370  00000+0  85204-3 0  9992
2 43937  97.0843 195.7541 0009507 264.2907  95.7263 15.52983590246104
JAISAT-1                
1 44419U 19038F   23168.42232100  .00020377  00000+0  69515-3 0  9994
2 44419  97.6730 150.1507 0012052 305.1617  54.8493 15.30310007218574
DUCHIFAT-3              
1 44854U 19089C   23168.14056062  .00008410  00000+0  56630-3 0  9991
2 44854  36.9622  91.5647 0010148 309.0083  50.9757 15.06241782192892
CAS-6 (TIANQIN 1)       
1 44881U 19093C   23168.49923194  .00001043  00000+0  13609-3 0  9997
2 44881  97.8617 246.9450 0016152  78.6970 281.6057 14.82539019188847
RS-44 & BREEZE-KM R/B   
1 44909U 19096E   23168.45711481  .00000021  00000+0  37705-4 0  9990
2 44909  82.5215 347.7660 0217363 186.0640 173.7824 12.79721288162199
BY70-2                  
1 45857U 20042B   23168.47871546  .00015604  00000+0  16012-2 0  9996
2 45857  97.9259 248.3764 0007614  13.6322 346.5100 14.90477192159582
SALSAT                  
1 46495U 20068K   23168.51904800  .00004423  00000+0  29288-3 0  9995
2 46495  97.7708 116.5251 0017291 116.0959 244.2050 15.07735839149122
RADFXSAT-2 (AO-109)     
1 47311U 21002C   23168.24343811  .00023663  00000+0  61275-3 0  9990
2 47311  60.6818  58.3261 0012020 181.0473 179.0598 15.38975451134297
UVSQ-SAT                
1 47438U 21006AB  23167.89993549  .00018472  00000+0  75424-3 0  9996
2 47438  97.3846 225.0101 0011315  87.3349 272.9184 15.24390749132600
DIY-1 (ARDUIQUBE)       
1 47963U 21022AH  23168.25392747  .00273695  00000+0  29502-2 0  9996
2 47963  97.4944  76.8966 0003221 157.2528 202.8873 15.62786273122606
XW-3 (CAS-9)            
1 50466U 21131B   23168.51744194  .00000630  00000+0  21869-3 0  9991
2 50466  98.5520 250.0612 0005280 130.3451 229.8198 14.38923544 77400
TEVEL-3                 
1 50988U 22002E   23168.44165342  .00017171  00000+0  68757-3 0  9997
2 50988  97.4337 235.4042 0007140 221.6995 138.3700 15.25099795 78808
TEVEL-8                 
1 50989U 22002F   23168.46041271  .00018138  00000+0  72743-3 0  9998
2 50989  97.4353 235.4820 0007236 220.6092 139.4607 15.25033436 78802
TEVEL-5                 
1 50998U 22002Q   23168.45173814  .00018317  00000+0  71510-3 0  9996
2 50998  97.4332 235.7978 0008443 217.2347 142.8307 15.25924456 78831
TEVEL-6                 
1 50999U 22002R   23168.45026227  .00018048  00000+0  70466-3 0  9992
2 50999  97.4331 235.7909 0008460 216.9378 143.1279 15.25924077 78835
TEVEL-1                 
1 51013U 22002AF  23168.45146249  .00017876  00000+0  71658-3 0  9999
2 51013  97.4332 235.3569 0007083 221.0304 139.0402 15.25054295 78803
TEVEL-7                 
1 51062U 22002CG  23168.46140758  .00018250  00000+0  73151-3 0  9990
2 51062  97.4349 235.4561 0007203 220.1209 139.9497 15.25051470 78801
TEVEL-4                 
1 51063U 22002CH  23168.46749419  .00017826  00000+0  71575-3 0  9996
2 51063  97.4348 235.4458 0007210 220.2693 139.8012 15.24998714 78804
TEVEL-2                 
1 51069U 22002CP  23168.44348247  .00017543  00000+0  70229-3 0  9995
2 51069  97.4333 235.3774 0007126 221.1793 138.8907 15.25102494 78806
GREENCUBE               
1 53106U 22080B   23164.78366827 -.00000003  00000+0  00000+0 0  9992
2 53106  70.1624 320.9023 0008461 186.0509 174.0049  6.42557024 21535
RS29S (SXC3-2110 CYCLO*)
1 53373U 22096D   23168.52828028  .00029591  00000+0  76659-3 0  9996
2 53373  97.4145  74.8274 0003219 111.4333 248.7256 15.38991039 47740
RS32S (SXC3-212 MONITO*)
1 53374U 22096E   23168.49757372  .00027330  00000+0  72825-3 0  9996
2 53374  97.4123  74.6743 0003696 112.5820 247.5816 15.38137615 47738
RS34S (SXC3-218 KUZBAS*)
1 53375U 22096F   23168.51904937  .00021903  00000+0  62250-3 0  9992
2 53375  97.4150  74.3865 0003533 109.5838 250.5787 15.36177265 47718
RS23S (SXC3-21 UTMN)    
1 53376U 22096G   23168.54142755  .00022957  00000+0  64128-3 0  9994
2 53376  97.4146  74.5021 0003271 109.2007 250.9591 15.36709013 47724
RS28S (SXC3-214 MIET-A*)
1 53377U 22096H   23168.52893595  .00020095  00000+0  57941-3 0  9994
2 53377  97.4156  74.3810 0003470 108.8583 251.3037 15.35742806 47710
RS26S (KAI-1)           
1 53378U 22096J   23168.50288251  .00017692  00000+0  53447-3 0  9996
2 53378  97.4171  74.1266 0003264 106.4783 253.6818 15.34300778 47694
RS19S (SXC3-219 ISOI)   
1 53381U 22096M   23168.54164015  .00021456  00000+0  60217-3 0  9991
2 53381  97.4146  74.6499 0005285  76.9519 283.2315 15.36567599 47730
RS21S (CUBESX-HSE-2)    
1 53383U 22096P   23168.51434578  .00022535  00000+0  62330-3 0  9991
2 53383  97.4149  74.6976 0005803  76.3139 283.8751 15.37009365 47736
RS30S (SXC3-217 SIREN)  
1 53384U 22096Q   23168.54636514  .00019623  00000+0  57030-3 0  9994
2 53384  97.4162  74.5161 0005626  72.6764 287.5095 15.35490392 47726
RS20S (GEOSCAN-EDELVEIS)
1 53385U 22096R   23168.49438705  .00032687  00000+0  80330-3 0  9995
2 53385  97.4138  75.3121 0005889  75.1341 285.0557 15.40570649 47800
RS33S (SXC3-215 VIZARD) 
1 53386U 22096S   23168.53815354  .00041101  00000+0  89174-3 0  9996
2 53386  97.4134  76.0121 0006399  75.8649 284.3309 15.44259515 47841
CAS-5A (FO-118)         
1 54684U 22167C   23168.53890334  .00010952  00000+0  60491-3 0  9999
2 54684  97.5622 306.1129 0012703 337.8205  22.2475 15.14024873 28730
